{"type":"FeatureCollection","features":[{"type":"Feature","properties":{"BARRIO":"BALMACEDA"},"geometry":{"type":"Polygon","coordinates":[[[-70.668486,-33.427031],[-70.669543,-33.429179],[-70.669211,-33.432123],[-70.680591,-33.433057],[-70.680723,-33.429786],[-70.680138,-33.42819],[-70.67766,-33.426693],[-70.676893,-33.426597],[-70.671775,-33.428325],[-70.671295,-33.426084],[-70.668486,-33.427031]]]}},{"type":"Feature","properties":{"BARRIO":"BOGOTÁ"},"geometry":{"type":"Polygon","coordinates":[[[-70.648541,-33.46979],[-70.648888,-33.463725],[-70.63988,-33.462798],[-70.631976,-33.461345],[-70.630253,-33.467786],[-70.648541,-33.46979]]]}},{"type":"Feature","properties":{"BARRIO":"BRASIL"},"geometry":{"type":"Polygon","coordinates":[[[-70.667421,-33.447655],[-70.668664,-33.43802],[-70.660369,-33.437194],[-70.661,-33.444209],[-70.660661,-33.445945],[-70.667421,-33.447655]]]}},{"type":"Feature","properties":{"BARRIO":"CASCO HISTÓRICO"},"geometry":{"type":"Polygon","coordinates":[[[-70.657546,-33.430554],[-70.648597,-33.432601],[-70.647573,-33.434316],[-70.646232,-33.442888],[-70.655434,-33.445279],[-70.65734,-33.434528],[-70.657546,-33.430554]]]}},{"type":"Feature","properties":{"BARRIO":"CLUB HIPICO"},"geometry":{"type":"Polygon","coordinates":[[[-70.663446,-33.470456],[-70.667711,-33.470588],[-70.671703,-33.466485],[-70.671521,-33.463514],[-70.672139,-33.45839],[-70.664939,-33.457125],[-70.663446,-33.470456]]]}},{"type":"Feature","properties":{"BARRIO":"DIEZ DE JULIO"},"geometry":{"type":"Polygon","coordinates":[[[-70.643154,-33.458401],[-70.643977,-33.453298],[-70.634571,-33.451581],[-70.630976,-33.451913],[-70.629864,-33.455604],[-70.643154,-33.458401]]]}},{"type":"Feature","properties":{"BARRIO":"EJERCITO"},"geometry":{"type":"Polygon","coordinates":[[[-70.656768,-33.458041],[-70.663928,-33.458469],[-70.664798,-33.447426],[-70.660661,-33.445945],[-70.658121,-33.454371],[-70.656768,-33.458041]]]}},{"type":"Feature","properties":{"BARRIO":"FRANKLIN"},"geometry":{"type":"Polygon","coordinates":[[[-70.648496,-33.469785],[-70.642268,-33.469124],[-70.641971,-33.476375],[-70.648295,-33.476705],[-70.648496,-33.469785]]]}},{"type":"Feature","properties":{"BARRIO":"HUEMUL"},"geometry":{"type":"Polygon","coordinates":[[[-70.654793,-33.47296],[-70.656256,-33.47],[-70.648541,-33.46979],[-70.648295,-33.47671],[-70.654667,-33.476346],[-70.654298,-33.47421],[-70.654793,-33.47296]]]}},{"type":"Feature","properties":{"BARRIO":"MATTA NORTE"},"geometry":{"type":"Polygon","coordinates":[[[-70.656816,-33.460557],[-70.656924,-33.45618],[-70.658035,-33.454555],[-70.650037,-33.454134],[-70.650572,-33.450509],[-70.644578,-33.449621],[-70.643277,-33.458139],[-70.649223,-33.45968],[-70.656816,-33.460557]]]}},{"type":"Feature","properties":{"BARRIO":"MATTA SUR"},"geometry":{"type":"Polygon","coordinates":[[[-70.649126,-33.459582],[-70.633275,-33.456221],[-70.631976,-33.461345],[-70.648888,-33.463725],[-70.649126,-33.459582]]]}},{"type":"Feature","properties":{"BARRIO":"MEIGGS"},"geometry":{"type":"Polygon","coordinates":[[[-70.672576,-33.449402],[-70.672139,-33.45839],[-70.676146,-33.458642],[-70.678356,-33.458221],[-70.677892,-33.450463],[-70.672973,-33.449126],[-70.672576,-33.449402]]]}},{"type":"Feature","properties":{"BARRIO":"PARQUE ALMAGRO"},"geometry":{"type":"Polygon","coordinates":[[[-70.646228,-33.442918],[-70.644578,-33.449621],[-70.650572,-33.450509],[-70.650037,-33.454134],[-70.658035,-33.454555],[-70.660604,-33.446518],[-70.646228,-33.442918]]]}},{"type":"Feature","properties":{"BARRIO":"PARQUE O'HIGGINS"},"geometry":{"type":"Polygon","coordinates":[[[-70.663449,-33.470456],[-70.663923,-33.458636],[-70.656676,-33.458032],[-70.656256,-33.47],[-70.663449,-33.470456]]]}},{"type":"Feature","properties":{"BARRIO":"REPUBLICA"},"geometry":{"type":"Polygon","coordinates":[[[-70.672131,-33.458382],[-70.672576,-33.449402],[-70.672973,-33.449126],[-70.66467,-33.446887],[-70.663859,-33.458597],[-70.672131,-33.458382]]]}},{"type":"Feature","properties":{"BARRIO":"RONDIZZONI"},"geometry":{"type":"Polygon","coordinates":[[[-70.664776,-33.475926],[-70.664866,-33.473625],[-70.659548,-33.473432],[-70.659635,-33.470318],[-70.656256,-33.47],[-70.654793,-33.47296],[-70.6543,-33.475245],[-70.65473,-33.476498],[-70.664776,-33.475926]]]}},{"type":"Feature","properties":{"BARRIO":"SAN BORJA"},"geometry":{"type":"Polygon","coordinates":[[[-70.644848,-33.448054],[-70.646214,-33.442934],[-70.638085,-33.438463],[-70.635228,-33.4373],[-70.63394,-33.441903],[-70.636537,-33.445166],[-70.644848,-33.448054]]]}},{"type":"Feature","properties":{"BARRIO":"SAN VICENTE"},"geometry":{"type":"Polygon","coordinates":[[[-70.672139,-33.458391],[-70.671521,-33.463514],[-70.671638,-33.466531],[-70.678965,-33.46667],[-70.678356,-33.458221],[-70.672139,-33.458391]]]}},{"type":"Feature","properties":{"BARRIO":"SANTA ANA"},"geometry":{"type":"Polygon","coordinates":[[[-70.660103,-33.439924],[-70.661141,-33.432331],[-70.662175,-33.429632],[-70.657546,-33.430554],[-70.655434,-33.445279],[-70.660604,-33.446518],[-70.660103,-33.439924]]]}},{"type":"Feature","properties":{"BARRIO":"SANTA ELENA"},"geometry":{"type":"Polygon","coordinates":[[[-70.629841,-33.455655],[-70.62646,-33.467387],[-70.630253,-33.467786],[-70.633296,-33.456419],[-70.629841,-33.455655]]]}},{"type":"Feature","properties":{"BARRIO":"SANTA ISABEL"},"geometry":{"type":"Polygon","coordinates":[[[-70.643977,-33.453298],[-70.644848,-33.448054],[-70.642516,-33.446485],[-70.636537,-33.445166],[-70.63394,-33.441903],[-70.630976,-33.451913],[-70.643977,-33.453298]]]}},{"type":"Feature","properties":{"BARRIO":"SANTA LUCIA - FORESTAL"},"geometry":{"type":"Polygon","coordinates":[[[-70.648597,-33.432601],[-70.635377,-33.435695],[-70.635228,-33.4373],[-70.643023,-33.441915],[-70.646214,-33.442934],[-70.647573,-33.434316],[-70.648597,-33.432601]]]}},{"type":"Feature","properties":{"BARRIO":"SIERRA BELLA"},"geometry":{"type":"Polygon","coordinates":[[[-70.642268,-33.469124],[-70.62646,-33.467387],[-70.625108,-33.46961],[-70.626711,-33.471502],[-70.640448,-33.476267],[-70.641971,-33.476375],[-70.642268,-33.469124]]]}},{"type":"Feature","properties":{"BARRIO":"VIEL"},"geometry":{"type":"Polygon","coordinates":[[[-70.648546,-33.469729],[-70.656251,-33.470101],[-70.656816,-33.460557],[-70.649126,-33.459582],[-70.648546,-33.469729]]]}},{"type":"Feature","properties":{"BARRIO":"YUNGAY"},"geometry":{"type":"Polygon","coordinates":[[[-70.679604,-33.443846],[-70.691866,-33.444479],[-70.691627,-33.439246],[-70.68012,-33.438443],[-70.680591,-33.433057],[-70.669211,-33.432123],[-70.66744,-33.447661],[-70.679021,-33.450727],[-70.679604,-33.443846]]]}}]}