{"type":"FeatureCollection","features":[{"type":"Feature","properties":{"TERRITORIO":"NOR ORIENTE"},"geometry":{"type":"Polygon","coordinates":[[[-70.635376,-33.435695],[-70.635212,-33.437061],[-70.636396,-33.437363],[-70.643127,-33.441741],[-70.6606,-33.445868],[-70.659707,-33.43946],[-70.660978,-33.430753],[-70.660644,-33.429829],[-70.635376,-33.435695]]]}},{"type":"Feature","properties":{"TERRITORIO":"NOR PONIENTE"},"geometry":{"type":"Polygon","coordinates":[[[-70.67159,-33.425634],[-70.660519,-33.429483],[-70.660978,-33.430753],[-70.659707,-33.43946],[-70.6606,-33.445868],[-70.678997,-33.450772],[-70.679579,-33.4438],[-70.692031,-33.444485],[-70.69175,-33.439403],[-70.692184,-33.438197],[-70.68025,-33.435846],[-70.680744,-33.429571],[-70.679272,-33.427351],[-70.676914,-33.426757],[-70.671841,-33.428219],[-70.67159,-33.425634]]]}},{"type":"Feature","properties":{"TERRITORIO":"CENTRO ORIENTE"},"geometry":{"type":"Polygon","coordinates":[[[-70.66058,-33.445856],[-70.643853,-33.442033],[-70.635212,-33.437061],[-70.629818,-33.455476],[-70.649144,-33.45951],[-70.657114,-33.460619],[-70.656749,-33.457878],[-70.658369,-33.453791],[-70.66058,-33.445856]]]}},{"type":"Feature","properties":{"TERRITORIO":"CENTRO PONIENTE"},"geometry":{"type":"Polygon","coordinates":[[[-70.656882,-33.456368],[-70.672117,-33.458277],[-70.678347,-33.458062],[-70.67789,-33.45053],[-70.66058,-33.445856],[-70.656882,-33.456368]]]}},{"type":"Feature","properties":{"TERRITORIO":"SUR ORIENTE"},"geometry":{"type":"Polygon","coordinates":[[[-70.654922,-33.476502],[-70.654417,-33.475052],[-70.65626,-33.471126],[-70.657114,-33.460619],[-70.629818,-33.455476],[-70.625085,-33.469551],[-70.627339,-33.471803],[-70.640198,-33.476286],[-70.648211,-33.47654],[-70.654922,-33.476502]]]}},{"type":"Feature","properties":{"TERRITORIO":"SUR PONIENTE"},"geometry":{"type":"Polygon","coordinates":[[[-70.678347,-33.458062],[-70.656882,-33.456368],[-70.657114,-33.460619],[-70.65626,-33.471126],[-70.654417,-33.475052],[-70.654922,-33.476502],[-70.671566,-33.475848],[-70.671576,-33.478495],[-70.680668,-33.478361],[-70.680615,-33.477025],[-70.671696,-33.476868],[-70.672841,-33.475027],[-70.672929,-33.470641],[-70.680113,-33.47066],[-70.679146,-33.469478],[-70.678347,-33.458062]]]}}]}